{
  "type": "FeatureCollection",
  "features": [
    {
      "type": "Feature",
      "properties": {
        "norad_id": 66911,
        "name": "1998-067XX",
        "group": "last-30-days",
        "lat": 16.474593896095662,
        "lon": -38.7827543487054,
        "alt_km": 407.71682494363904,
        "timestamp": "2025-12-10T05:46:12.576826+00:00",
        "meta_object_name": "1998-067XX",
        "meta_object_id": "1998-067XX",
        "meta_epoch": "2025-12-09T02:48:25.040736",
        "meta_mean_motion": 15.51276485,
        "meta_eccentricity": 0.00057034,
        "meta_inclination": 51.6296,
        "meta_ra_of_asc_node": 160.3494,
        "meta_arg_of_pericenter": 191.2268,
        "meta_mean_anomaly": 168.8595,
        "meta_ephemeris_type": 0,
        "meta_classification_type": "U",
        "meta_norad_cat_id": 66911,
        "meta_element_set_no": 999,
        "meta_rev_at_epoch": 104,
        "meta_bstar": 0.0014245982,
        "meta_mean_motion_dot": 0.00085582,
        "meta_mean_motion_ddot": 0,
        "tle_line1": "1 66911U 98067XX  25343.11695649  .00085582  00000+0  14246-2 0  9997",
        "tle_line2": "2 66911  51.6296 160.3494 0005703 191.2268 168.8595 15.51276485  1046"
      },
      "geometry": {
        "type": "Point",
        "coordinates": [
          -38.7827543487054,
          16.474593896095662
        ]
      }
    },
    {
      "type": "Feature",
      "properties": {
        "norad_id": 66912,
        "name": "1998-067XY",
        "group": "last-30-days",
        "lat": 27.217673833462246,
        "lon": -49.25049183625279,
        "alt_km": 409.6839003692194,
        "timestamp": "2025-12-10T05:46:12.576838+00:00",
        "meta_object_name": "1998-067XY",
        "meta_object_id": "1998-067XY",
        "meta_epoch": "2025-12-08T19:07:24.168000",
        "meta_mean_motion": 15.50590071,
        "meta_eccentricity": 0.00050436,
        "meta_inclination": 51.6301,
        "meta_ra_of_asc_node": 161.961,
        "meta_arg_of_pericenter": 202.8278,
        "meta_mean_anomaly": 157.2488,
        "meta_ephemeris_type": 0,
        "meta_classification_type": "U",
        "meta_norad_cat_id": 66912,
        "meta_element_set_no": 999,
        "meta_rev_at_epoch": 99,
        "meta_bstar": 0.0009627216,
        "meta_mean_motion_dot": 0.00056065,
        "meta_mean_motion_ddot": 0,
        "tle_line1": "1 66912U 98067XY  25342.79680750  .00056065  00000+0  96272-3 0  9992",
        "tle_line2": "2 66912  51.6301 161.9610 0005043 202.8278 157.2488 15.50590071   993"
      },
      "geometry": {
        "type": "Point",
        "coordinates": [
          -49.25049183625279,
          27.217673833462246
        ]
      }
    },
    {
      "type": "Feature",
      "properties": {
        "norad_id": 66913,
        "name": "2025-284A",
        "group": "last-30-days",
        "lat": 77.27883554280713,
        "lon": -178.5286742738072,
        "alt_km": 507.2247638445524,
        "timestamp": "2025-12-10T05:46:12.576848+00:00",
        "meta_object_name": "2025-284A",
        "meta_object_id": "2025-284A",
        "meta_epoch": "2025-12-09T19:55:29.921088",
        "meta_mean_motion": 15.18869033,
        "meta_eccentricity": 0.0011901,
        "meta_inclination": 80.4044,
        "meta_ra_of_asc_node": 133.4525,
        "meta_arg_of_pericenter": 213.2351,
        "meta_mean_anomaly": 146.813,
        "meta_ephemeris_type": 0,
        "meta_classification_type": "U",
        "meta_norad_cat_id": 66913,
        "meta_element_set_no": 999,
        "meta_rev_at_epoch": 68,
        "meta_bstar": 0.00013678,
        "meta_mean_motion_dot": 2.875e-05,
        "meta_mean_motion_ddot": 0,
        "tle_line1": "1 66913U 25284A   25343.83020742  .00002875  00000+0  13678-3 0  9998",
        "tle_line2": "2 66913  80.4044 133.4525 0011901 213.2351 146.8130 15.18869033   680"
      },
      "geometry": {
        "type": "Point",
        "coordinates": [
          -178.5286742738072,
          77.27883554280713
        ]
      }
    },
    {
      "type": "Feature",
      "properties": {
        "norad_id": 66914,
        "name": "2025-284B",
        "group": "last-30-days",
        "lat": 78.84534562954073,
        "lon": -167.9899947812665,
        "alt_km": 507.45261958781066,
        "timestamp": "2025-12-10T05:46:12.576858+00:00",
        "meta_object_name": "2025-284B",
        "meta_object_id": "2025-284B",
        "meta_epoch": "2025-12-09T19:54:48.040416",
        "meta_mean_motion": 15.1883089,
        "meta_eccentricity": 0.0008113,
        "meta_inclination": 80.4056,
        "meta_ra_of_asc_node": 133.4537,
        "meta_arg_of_pericenter": 256.1185,
        "meta_mean_anomaly": 103.914,
        "meta_ephemeris_type": 0,
        "meta_classification_type": "U",
        "meta_norad_cat_id": 66914,
        "meta_element_set_no": 999,
        "meta_rev_at_epoch": 68,
        "meta_bstar": 0.00072395,
        "meta_mean_motion_dot": 0.0001512,
        "meta_mean_motion_ddot": 0,
        "tle_line1": "1 66914U 25284B   25343.82972269  .00015120  00000+0  72395-3 0  9996",
        "tle_line2": "2 66914  80.4056 133.4537 0008113 256.1185 103.9140 15.18830890   683"
      },
      "geometry": {
        "type": "Point",
        "coordinates": [
          -167.9899947812665,
          78.84534562954073
        ]
      }
    },
    {
      "type": "Feature",
      "properties": {
        "norad_id": 66915,
        "name": "HULIANWANG DIGUI 14A",
        "group": "last-30-days",
        "lat": 30.95448732264323,
        "lon": -82.76359591611612,
        "alt_km": 875.0698190084631,
        "timestamp": "2025-12-10T05:46:12.576868+00:00",
        "meta_object_name": "HULIANWANG DIGUI 14A",
        "meta_object_id": "2025-285A",
        "meta_epoch": "2025-12-09T20:35:04.224192",
        "meta_mean_motion": 14.05466228,
        "meta_eccentricity": 0.0008102,
        "meta_inclination": 50.0033,
        "meta_ra_of_asc_node": 129.034,
        "meta_arg_of_pericenter": 273.0207,
        "meta_mean_anomaly": 86.9771,
        "meta_ephemeris_type": 0,
        "meta_classification_type": "U",
        "meta_norad_cat_id": 66915,
        "meta_element_set_no": 999,
        "meta_rev_at_epoch": 50,
        "meta_bstar": 1.5476e-05,
        "meta_mean_motion_dot": -1.27e-06,
        "meta_mean_motion_ddot": 0,
        "tle_line1": "1 66915U 25285A   25343.85768778 -.00000127  00000+0  15476-4 0  9999",
        "tle_line2": "2 66915  50.0033 129.0340 0008102 273.0207  86.9771 14.05466228   502"
      },
      "geometry": {
        "type": "Point",
        "coordinates": [
          -82.76359591611612,
          30.95448732264323
        ]
      }
    },
    {
      "type": "Feature",
      "properties": {
        "norad_id": 66916,
        "name": "HULIANWANG DIGUI 14B",
        "group": "last-30-days",
        "lat": 30.492508467956917,
        "lon": -82.1567923435017,
        "alt_km": 874.0000390404339,
        "timestamp": "2025-12-10T05:46:12.576878+00:00",
        "meta_object_name": "HULIANWANG DIGUI 14B",
        "meta_object_id": "2025-285B",
        "meta_epoch": "2025-12-09T20:34:53.715360",
        "meta_mean_motion": 14.05512717,
        "meta_eccentricity": 0.0006963,
        "meta_inclination": 50.0044,
        "meta_ra_of_asc_node": 129.0345,
        "meta_arg_of_pericenter": 267.7088,
        "meta_mean_anomaly": 92.302,
        "meta_ephemeris_type": 0,
        "meta_classification_type": "U",
        "meta_norad_cat_id": 66916,
        "meta_element_set_no": 999,
        "meta_rev_at_epoch": 50,
        "meta_bstar": 1.5447e-05,
        "meta_mean_motion_dot": -1.27e-06,
        "meta_mean_motion_ddot": 0,
        "tle_line1": "1 66916U 25285B   25343.85756615 -.00000127  00000+0  15447-4 0  9995",
        "tle_line2": "2 66916  50.0044 129.0345 0006963 267.7088  92.3020 14.05512717   503"
      },
      "geometry": {
        "type": "Point",
        "coordinates": [
          -82.1567923435017,
          30.492508467956917
        ]
      }
    },
    {
      "type": "Feature",
      "properties": {
        "norad_id": 66917,
        "name": "HULIANWANG DIGUI 14C",
        "group": "last-30-days",
        "lat": 29.823112844519674,
        "lon": -81.30492500886147,
        "alt_km": 874.62001554792,
        "timestamp": "2025-12-10T05:46:12.576888+00:00",
        "meta_object_name": "HULIANWANG DIGUI 14C",
        "meta_object_id": "2025-285C",
        "meta_epoch": "2025-12-09T20:34:38.180640",
        "meta_mean_motion": 14.05578744,
        "meta_eccentricity": 0.0007545,
        "meta_inclination": 50.0009,
        "meta_ra_of_asc_node": 129.0302,
        "meta_arg_of_pericenter": 275.4964,
        "meta_mean_anomaly": 84.5081,
        "meta_ephemeris_type": 0,
        "meta_classification_type": "U",
        "meta_norad_cat_id": 66917,
        "meta_element_set_no": 999,
        "meta_rev_at_epoch": 50,
        "meta_bstar": -2.7368e-06,
        "meta_mean_motion_dot": -1.57e-06,
        "meta_mean_motion_ddot": 0,
        "tle_line1": "1 66917U 25285C   25343.85738635 -.00000157  00000+0 -27368-5 0  9998",
        "tle_line2": "2 66917  50.0009 129.0302 0007545 275.4964  84.5081 14.05578744   506"
      },
      "geometry": {
        "type": "Point",
        "coordinates": [
          -81.30492500886147,
          29.823112844519674
        ]
      }
    }
  ]
}